[
  {
    "name":"Hinkley, Elizabeth A.",
    "address":"506 N. Center St",
    "city":"Appleton",
    "state":"WI",
    "zip":54911,
    "team":"Green Bay",
    "type":"Sales"
  },
  {
    "name":"Romnek, Michael E.",
    "address":"2400 E John St",
    "city":"Appleton",
    "state":"WI",
    "zip":54915,
    "team":"Green Bay",
    "type":"Sales"
  },
  {
    "name":"Stratton, Erik D.",
    "address":"4715 Turkey Trail",
    "city":"Amherst",
    "state":"WI",
    "zip":54406,
    "team":"Green Bay",
    "type":"Sales"
  },
  {
    "name":"Tomaszewski, Thomas D.",
    "address":"846 Lum Ave",
    "city":"Waterloo",
    "state":"WI",
    "zip":53594,
    "team":"Green Bay",
    "type":"Sales"
  },
  {
    "name":"Goodine, Sheri L.",
    "address":"3821 Patrick Henry Way",
    "city":"Middleton",
    "state":"WI",
    "zip":53562,
    "team":"Madison",
    "type":"Sales"
  },
  {
    "name":"Hockett, Chad A.",
    "address":"144 W. Klubertanz Dr.",
    "city":"Sun Prairie",
    "state":"WI",
    "zip":53590,
    "team":"Madison",
    "type":"Sales"
  },
  {
    "name":"Lentz, Paul A.",
    "address":"1370 Pinnacle Circle",
    "city":"Sun Prairie",
    "state":"WI",
    "zip":53590,
    "team":"Madison",
    "type":"Sales"
  },
  {
    "name":"Zahn, Michael E.",
    "address":"741 Nyggard St",
    "city":"Stoughton",
    "state":"WI",
    "zip":53589,
    "team":"Madison",
    "type":"Sales"
  },
  {
    "name":"Boucher, Bert N.",
    "address":"9413 W Waterford Ave",
    "city":"Greenfield",
    "state":"WI",
    "zip":53228,
    "team":"Milwaukee",
    "type":"Sales"
  },
  {
    "name":"Briggs, Kelly P.",
    "address":"30938 Pleasant View Dr",
    "city":"Waterford",
    "state":"WI",
    "zip":53185,
    "team":"Milwaukee",
    "type":"Sales"
  },
  {
    "name":"Campbell, Kevin M.",
    "address":"336 Llamberris Pass",
    "city":"Wales",
    "state":"IL",
    "zip":53183,
    "team":"Milwaukee",
    "type":"Sales"
  },
  {
    "name":"Marifke, Ryan D.",
    "address":"200 Lake Drive",
    "city":"South Milwaukee",
    "state":"WI",
    "zip":53172,
    "team":"Milwaukee",
    "type":"Sales"
  },
  {
    "name":"Peppler, Gary W.",
    "address":"216 N. Milwaukee St.",
    "city":"Waterford",
    "state":"WI",
    "zip":53185,
    "team":"Milwaukee",
    "type":"Sales"
  },
  {
    "name":"Sanborn, Bruce J.",
    "address":"5636 380th Ave",
    "city":"Wheatland",
    "state":"WI",
    "zip":53105,
    "team":"Milwaukee",
    "type":"Sales"
  },
  {
    "name":"Slaaen, Matthew W.",
    "address":"4434 Patzke Rd",
    "city":"Racine",
    "state":"WI",
    "zip":53405,
    "team":"Milwaukee",
    "type":"Sales"
  },
  {
    "name":"Wakefield, Craig D.",
    "address":"8225 W. Center St",
    "city":"Wauwatosa",
    "state":"WI",
    "zip":53222,
    "team":"Milwaukee",
    "type":"Sales"
  },
  {
    "name":"Belcher, John C.",
    "address":"5925 Dublin Ct",
    "city":"McHenry",
    "state":"IL",
    "zip":60050,
    "team":"North",
    "type":"Sales"
  },
  {
    "name":"Coleman, Robert",
    "address":"461 Cedar Drive",
    "city":"Round Lake",
    "state":"IL",
    "zip":60073,
    "team":"North",
    "type":"Sales"
  },
  {
    "name":"Curiel, Jose A.",
    "address":"5846 W Walton St",
    "city":"Chicago",
    "state":"IL",
    "zip":60651,
    "team":"North",
    "type":"Sales"
  },
  {
    "name":"Guzaldo, Vincent A.",
    "address":"1320 Kempton",
    "city":"Libertyville",
    "state":"IL",
    "zip":60048,
    "team":"North",
    "type":"Sales"
  },
  {
    "name":"Hassmer, Thomas",
    "address":"3116 N NEENAH",
    "city":"Chicago",
    "state":"IL",
    "zip":60634,
    "team":"North",
    "type":"Sales"
  },
  {
    "name":"Heidemann, Miles G.",
    "address":"3654 N Pontiac Ave",
    "city":"Chicago",
    "state":"IL",
    "zip":60634,
    "team":"North",
    "type":"Sales"
  },
  {
    "name":"Herran, Francisco",
    "address":"1000 Bennett Ct",
    "city":"North Aurora",
    "state":"IL",
    "zip":60542,
    "team":"North",
    "type":"Sales"
  },
  {
    "name":"Kos, Gary J.",
    "address":"455 Marion Street",
    "city":"Roselle",
    "state":"IL",
    "zip":60172,
    "team":"North",
    "type":"Sales"
  },
  {
    "name":"Lane, Tyrone W.",
    "address":"1256 Amaranth Dr",
    "city":"Naperville",
    "state":"IL",
    "zip":60564,
    "team":"North",
    "type":"Sales"
  },
  {
    "name":"Levine, Neal E.",
    "address":"108 BRIXHAM",
    "city":"Schaumburg",
    "state":"IL",
    "zip":60194,
    "team":"North",
    "type":"Sales"
  },
  {
    "name":"McConnell, Patrick W.",
    "address":"631 Deer Run Dr.",
    "city":"Palatine",
    "state":"IL",
    "zip":60067,
    "team":"North",
    "type":"Sales"
  },
  {
    "name":"Metcalf, Peter J.",
    "address":"2706 N. 76th Ct",
    "city":"Elmwood Park",
    "state":"IL",
    "zip":60707,
    "team":"North",
    "type":"Sales"
  },
  {
    "name":"Nicholson, David O.",
    "address":"316 Evergreen Ct.",
    "city":"Schaumburg",
    "state":"IL",
    "zip":60193,
    "team":"North",
    "type":"Sales"
  },
  {
    "name":"Nieves, Marco",
    "address":"3115 N MANGO",
    "city":"Chicago",
    "state":"IL",
    "zip":60634,
    "team":"North",
    "type":"Sales"
  },
  {
    "name":"Nosek, Stephen T.",
    "address":"710 S Rosehall Lane",
    "city":"Round Lake",
    "state":"IL",
    "zip":60073,
    "team":"North",
    "type":"Sales"
  },
  {
    "name":"Pontarelli, Peter I.",
    "address":"432 Timothy Ct",
    "city":"Schaumburg",
    "state":"IL",
    "zip":60193,
    "team":"North",
    "type":"Sales"
  },
  {
    "name":"Portera, Francesco",
    "address":"114 N 3rd Ave",
    "city":"Des Plaines",
    "state":"IL",
    "zip":60016,
    "team":"North",
    "type":"Sales"
  },
  {
    "name":"Pratico, Tyler L.",
    "address":"2245 12th Ave",
    "city":"North Riverside",
    "state":"IL",
    "zip":60546,
    "team":"North",
    "type":"Sales"
  },
  {
    "name":"Ptack, John D.",
    "address":"7628 W. FULLERTON",
    "city":"Elmwood Park",
    "state":"IL",
    "zip":60707,
    "team":"North",
    "type":"Sales"
  },
  {
    "name":"Rabin, Steven J.",
    "address":"10119 Devon Ct.",
    "city":"Rosemont",
    "state":"IL",
    "zip":60018,
    "team":"North",
    "type":"Sales"
  },
  {
    "name":"Rizzi, James A.",
    "address":"801 Hill Top",
    "city":"McHenry",
    "state":"IL",
    "zip":60050,
    "team":"North",
    "type":"Sales"
  },
  {
    "name":"Shannon, John M.",
    "address":"3326 Stillwell Ct",
    "city":"Woodridge",
    "state":"IL",
    "zip":60517,
    "team":"North",
    "type":"Sales"
  },
  {
    "name":"Trice, Matthew C.",
    "address":"4S221 Curtis Ave",
    "city":"Warrenville",
    "state":"IL",
    "zip":60555,
    "team":"North",
    "type":"Sales"
  },
  {
    "name":"Vitale, Anthony J.",
    "address":"320 Morningside Drive A",
    "city":"Bloomingdale",
    "state":"IL",
    "zip":60108,
    "team":"North",
    "type":"Sales"
  },
  {
    "name":"Warkentin, Thomas H.",
    "address":"40511 N. Fairview St.",
    "city":"Antioch",
    "state":"IL",
    "zip":60002,
    "team":"North",
    "type":"Sales"
  },
  {
    "name":"Welscher, Joshua P.",
    "address":"1555 N Talman Ave",
    "city":"Chicago",
    "state":"IL",
    "zip":60622,
    "team":"North",
    "type":"Sales"
  },
  {
    "name":"Winther, Don D.",
    "address":"27927 Ash St.",
    "city":"Wauconda",
    "state":"IL",
    "zip":60084,
    "team":"North",
    "type":"Sales"
  },
  {
    "name":"Bardwell, Jared M.",
    "address":"24 Conway Circle",
    "city":"Bloomington",
    "state":"IL",
    "zip":61704,
    "team":"Peoria",
    "type":"Sales"
  },
  {
    "name":"Clason, Stephen R.",
    "address":"104 Tanglewood Ln",
    "city":"East Peoria",
    "state":"IL",
    "zip":61611,
    "team":"Peoria",
    "type":"Sales"
  },
  {
    "name":"Edwards, Alex C.",
    "address":"816 Anne St",
    "city":"Washington",
    "state":"IL",
    "zip":61571,
    "team":"Peoria",
    "type":"Sales"
  },
  {
    "name":"Swearingen, Michael P.",
    "address":"1003 N. Main Ave",
    "city":"Wyoming",
    "state":"IL",
    "zip":61491,
    "team":"Peoria",
    "type":"Sales"
  },
  {
    "name":"Kein, James",
    "address":"50-5 OAK HILL COLONY",
    "city":"Fox Lake",
    "state":"IL",
    "zip":60020,
    "team":"Rockford",
    "type":"Sales"
  },
  {
    "name":"Sanders, Todd A.",
    "address":"5501 Goodhue Ave",
    "city":"Rockford",
    "state":"IL",
    "zip":61109,
    "team":"Rockford",
    "type":"Sales"
  },
  {
    "name":"Schmidt, Jerold D.",
    "address":"3089 Fritland Dr.",
    "city":"Rockford",
    "state":"IL",
    "zip":61109,
    "team":"Rockford",
    "type":"Sales"
  },
  {
    "name":"Schwartz, Raymond S.",
    "address":"12390 Glazier St",
    "city":"Huntley",
    "state":"IL",
    "zip":60142,
    "team":"Rockford",
    "type":"Sales"
  },
  {
    "name":"Sharpe, Dennis O.",
    "address":"11855 CARDINAL LANE",
    "city":"Caledonia",
    "state":"IL",
    "zip":61011,
    "team":"Rockford",
    "type":"Sales"
  },
  {
    "name":"Shelain, Gregory M.",
    "address":"11224 Debussey Drive",
    "city":"Machesney Park",
    "state":"IL",
    "zip":61115,
    "team":"Rockford",
    "type":"Sales"
  },
  {
    "name":"Blackwell, Richard D.",
    "address":"8131 S. Maplewood",
    "city":"Chicago",
    "state":"IL",
    "zip":60652,
    "team":"South",
    "type":"Sales"
  },
  {
    "name":"Brumfield, Ernest",
    "address":"408 Woodland Estates Drive",
    "city":"Valparaiso",
    "state":"IN",
    "zip":46385,
    "team":"South",
    "type":"Sales"
  },
  {
    "name":"Casteel, Ronald K.",
    "address":"1967 Hamilton Street",
    "city":"Portage",
    "state":"IN",
    "zip":46368,
    "team":"South",
    "type":"Sales"
  },
  {
    "name":"Cheek, Michael P.",
    "address":"8870 Beck Place",
    "city":"Hometown",
    "state":"IL",
    "zip":60456,
    "team":"South",
    "type":"Sales"
  },
  {
    "name":"Donnelly, Patrick J.",
    "address":"3843 W 70th Street",
    "city":"Chicago",
    "state":"IL",
    "zip":60629,
    "team":"South",
    "type":"Sales"
  },
  {
    "name":"Haak, Daniel M.",
    "address":"11631 S Derby Lane",
    "city":"Plainfield",
    "state":"IL",
    "zip":60535,
    "team":"South",
    "type":"Sales"
  },
  {
    "name":"Hicks, Terrance J.",
    "address":"7535 S. Eberhart",
    "city":"Chicago",
    "state":"IL",
    "zip":60619,
    "team":"South",
    "type":"Sales"
  },
  {
    "name":"Irish, John W.",
    "address":"7920 Winter Circle Drive",
    "city":"Downers Grove",
    "state":"IL",
    "zip":60516,
    "team":"South",
    "type":"Sales"
  },
  {
    "name":"Matariyeh, Mahmoud",
    "address":"9716 S. 49th Ave",
    "city":"Oak Lawn",
    "state":"IL",
    "zip":60453,
    "team":"South",
    "type":"Sales"
  },
  {
    "name":"Miles, Kelvin",
    "address":"546 Pullman Rd",
    "city":"Romeoville",
    "state":"IL",
    "zip":60446,
    "team":"South",
    "type":"Sales"
  },
  {
    "name":"Ptak, James W.",
    "address":"14532 Meadow Lane",
    "city":"Plainfield",
    "state":"IL",
    "zip":60544,
    "team":"South",
    "type":"Sales"
  },
  {
    "name":"Rosko, David A.",
    "address":"15036 Laramie",
    "city":"Oak Forest",
    "state":"IL",
    "zip":60452,
    "team":"South",
    "type":"Sales"
  },
  {
    "name":"Shuckford, Timothy J.",
    "address":"540 W. Monitor St.",
    "city":"Crown Point",
    "state":"IN",
    "zip":46307,
    "team":"South",
    "type":"Sales"
  },
  {
    "name":"Smith, Marty E.",
    "address":"66 Osage Ct",
    "city":"Oswego",
    "state":"IL",
    "zip":60543,
    "team":"South",
    "type":"Sales"
  },
  {
    "name":"Sullivan, Jeffrey M.",
    "address":"3705 W 119th St",
    "city":"Alsip",
    "state":"IL",
    "zip":60803,
    "team":"South",
    "type":"Sales"
  },
  {
    "name":"Swan, Thomas E.",
    "address":"15339 S Sequoia Street",
    "city":"Oak Forest",
    "state":"IL",
    "zip":60452,
    "team":"South",
    "type":"Sales"
  }
]